{"fetched_at":"2026-05-15T02:58:15Z","count":8847,"tles":[{"name":"NUSAT-17 (MARY)","line1":"1 46835U 20079J   23284.29276060  .06070740  23323-5  85680-3 0  9997","line2":"2 46835  97.1075 359.8353 0009742 276.5659  83.4530 16.34866841164770","category":"Other"},{"name":"SUPERVIEW-1 02","line1":"1 41908U 16083B   23362.47403756  .00021628  00000+0  64806-3 0  9997","line2":"2 41908  97.2978  64.0523 0016120  81.2616 279.0452 15.34390524387508","category":"Other"},{"name":"ICEYE-X13","line1":"1 48916U 21059AP  23362.47948036  .00015164  00000+0  73797-3 0  9994","line2":"2 48916  97.6161 135.3491 0006345   6.2034 353.9277 15.18467295138533","category":"Other"},{"name":"BEIDOU-2 G1","line1":"1 36287U 10001A   26134.27542191 -.00000266  00000+0  00000+0 0  9998","line2":"2 36287   4.2138  60.4981 0002977 305.1470 106.0002  1.00269240 59837","category":"GPS"},{"name":"SMOG-1","line1":"1 47964U 21022AJ  24209.98015345  .12039603  26070-5  10242-2 0  9994","line2":"2 47964  97.4276 125.0060 0011656 220.2318 139.8119 16.39369715184698","category":"Other"},{"name":"CZ-6C R/B","line1":"1 59681U 24085E   26022.75652376  .09754633  25656-5  13358-3 0  9990","line2":"2 59681  97.2991 126.1946 0009921 245.1538 114.8735 16.48752013 97266","category":"Other"},{"name":"GLOBAL-1","line1":"1 43730U 18096M   24055.52702785  .14355624  25366-5  13826-3 0  9993","line2":"2 43730  97.2869 155.9689 0013512 270.6668  89.3089 16.50683749293493","category":"Other"},{"name":"GSAT0206 (GALILEO 10)","line1":"1 40890U 15045B   26130.91590674  .00000006  00000+0  00000+0 0  9993","line2":"2 40890  54.9559 222.6337 0001772  27.2114 332.8341  1.70474023 66407","category":"GPS"},{"name":"CAPELLA-9-WHITNEY","line1":"1 55910U 23035C   23361.87504223  .00016147  00000+0  13163-2 0  9993","line2":"2 55910  43.9991 244.4088 0009067 156.0492 204.0788 14.99271847 42777","category":"Other"},{"name":"UMBRA-05","line1":"1 55036U 23001AD  23361.10639847  .00022408  00000+0  14072-2 0  9999","line2":"2 55036  97.4503  57.4148 0010692 297.1581  62.8557 15.09233558 54282","category":"Other"},{"name":"NUSAT-18 (VERA)","line1":"1 46836U 20079K   23273.47663050  .12791126  24129-5  21295-3 0  9997","line2":"2 46836  97.1084 350.0553 0012156 262.8962  97.0960 16.47337991163156","category":"Other"},{"name":"ICEYE-X15","line1":"1 48917U 21059AQ  23362.43992060  .00023377  00000+0  79595-3 0  9994","line2":"2 48917  97.6127 142.3594 0010194 272.1280  87.8793 15.30363767138991","category":"Other"},{"name":"2023-117D","line1":"1 57583U 23117D   23362.48717620  .00015934  00000+0  84766-3 0  9998","line2":"2 57583  97.5062  72.3070 0011995 162.7637 197.4005 15.15275947 21202","category":"Other"},{"name":"ICEYE-X9","line1":"1 47506U 21006CX  23362.46418627  .00027778  00000+0  10076-2 0  9991","line2":"2 47506  97.3622  54.3082 0008413 126.8860 233.3152 15.28271202162044","category":"Other"},{"name":"YAOGAN-23","line1":"1 40305U 14071A   24347.27922212  .07740121  27366-5  72463-3 0  9998","line2":"2 40305  97.6653 349.5059 0003440 254.7314 115.2384 16.38800959560321","category":"Other"},{"name":"NAVSTAR 82 (USA 343)","line1":"1 55268U 23009A   26133.55116118  .00000117  00000+0  00000+0 0  9990","line2":"2 55268  55.1171 149.8805 0005990 314.6521  41.8863  2.00573844 24546","category":"GPS"},{"name":"ICEYE-X17","line1":"1 52762U 22057AG  23362.38078704  .00012900  00000+0  57881-3 0  9994","line2":"2 52762  97.5558 120.8021 0013644   1.6767 358.4512 15.21246070 88295","category":"Other"},{"name":"NUSAT-36 (ANNIE CANNON)","line1":"1 56190U 23054N   23362.46415000  .00016443  00000+0  59254-3 0  9996","line2":"2 56190  97.3802 254.9322 0010119  59.1427 301.0806 15.28580851 39798","category":"Other"},{"name":"2023-117E","line1":"1 57584U 23117E   23362.48574794  .00016069  00000+0  85457-3 0  9990","line2":"2 57584  97.5084  72.3473 0011581 163.8412 196.3192 15.15288956 21207","category":"Other"},{"name":"XR-1 (ICEYE-X10)","line1":"1 47507U 21006CY  23362.16767733  .00014253  00000+0  62135-3 0  9992","line2":"2 47507  97.3689  55.9320 0013920 134.3470 225.8910 15.22197725162106","category":"Other"},{"name":"2024-024D","line1":"1 58920U 24024D   24064.09578850  .00039974  00000+0  19239-2 0  9991","line2":"2 58920  97.4018 140.9542 0010424 182.6045 177.5137 15.18605301  4541","category":"Other"},{"name":"NUSAT-16 (LISE)","line1":"1 46840U 20079P   23264.62434975  .13105652  24277-5  19727-3 0  9996","line2":"2 46840  97.1310 341.7966 0013059 263.6613  96.3204 16.47842739161784","category":"Other"},{"name":"COSMOS 2425 (716)","line1":"1 29670U 06062A   08024.29280838 -.00000017  00000-0  10000-3 0  3191","line2":"2 29670  65.0562  60.3027 0024396 346.8929 347.5633  2.13103461  8395","category":"Other"},{"name":"NUSAT-22 (SOFYA)","line1":"1 48919U 21059AS  23348.70667672  .05646830  24889-5  95890-3 0  9991","line2":"2 48919  97.3877 137.7655 0008363 280.5943  79.4410 16.33088873138935","category":"Other"},{"name":"SKYSAT-C17","line1":"1 46179U 20057BQ  23361.85955853  .00117729  00000+0  64037-3 0  9993","line2":"2 46179  52.9700 214.8332 0006126  89.9494 270.2227 15.79119910192415","category":"Other"},{"name":"NUSAT-24 (KALPANA CHAW*)","line1":"1 52178U 22033X   23362.41241005  .00019957  00000+0  63127-3 0  9998","line2":"2 52178  97.3014  78.9112 0007362 187.2227 172.8911 15.32787638 97021","category":"Other"},{"name":"HAISI 1","line1":"1 47297U 20102B   24249.10042182  .33476373  26366-5  21337-3 0  9996","line2":"2 47297  97.3944   5.6549 0013516 260.6168 180.3041 16.53664568206916","category":"Other"},{"name":"COSMOS 2457 [GLONASS-M]","line1":"1 36112U 09070B   26132.20336640  .00000001  00000+0  00000+0 0  9996","line2":"2 36112  64.9768  72.0433 0001452 149.1813 349.1541  2.13101274127663","category":"GPS"},{"name":"NUSAT-29 (EDITH CLARKE)","line1":"1 52764U 22057AJ  23362.47379717  .00017337  00000+0  66078-3 0  9991","line2":"2 52764  97.4226 116.9319 0008550 337.2244  22.8615 15.26734301 88506","category":"Other"},{"name":"GSAT0221 (GALILEO 25)","line1":"1 43564U 18060A   26133.45657443 -.00000058  00000+0  00000+0 0  9992","line2":"2 43564  57.1798 342.7184 0003288 317.8790  42.1390  1.70475765 48571","category":"GPS"},{"name":"COSMOS 2460 [GLONASS-M]","line1":"1 36402U 10007C   26133.41808615 -.00000014  00000+0  00000+0 0  9995","line2":"2 36402  65.4410 315.6434 0002329  76.3643 275.7386  2.13106409125987","category":"GPS"},{"name":"NUSAT-28 (ALICE LEE)","line1":"1 52747U 22057R   26077.44886485  .04527044  25641-5  73258-3 0  9997","line2":"2 52747  97.4934 228.6472 0011088 277.4893  82.5143 16.33471320213461","category":"Other"},{"name":"COSMOS 2426 (717)","line1":"1 29671U 06062B   08024.12042413 -.00000016  00000-0  10000-3 0  3244","line2":"2 29671  65.0723  60.3269 0019493 177.2358 250.4135  2.13103755  8404","category":"Other"},{"name":"NUSAT-21 (ELISA)","line1":"1 48920U 21059AT  23296.27635660  .14817811  25158-5  34125-3 0  9992","line2":"2 48920  97.3759  85.1763 0010524 294.8063 153.6915 16.45689205130953","category":"Other"},{"name":"SKYSAT-C18","line1":"1 46180C 20057BR  23176.84012732  .14407093  00000-0  15943-2 0  1768","line2":"2 46180  52.9561  11.8431 0017318 265.4879 104.1762 16.35747614    14","category":"Other"},{"name":"WISE","line1":"1 36119U 09071A   24213.61796229  .00078229  00000+0  62366-3 0  9994","line2":"2 36119  97.1388 250.9852 0001482 130.1811 229.9582 15.70926736815208","category":"Other"},{"name":"GPS BIIF-10","line1":"1 40730U 15033A   26133.81802306 -.00000033  00000+0  00000+0 0  9994","line2":"2 40730  54.0105 268.5030 0115000  30.0544 330.5749  2.00557945 79305","category":"GPS"},{"name":"GSAT0222 (GALILEO 26)","line1":"1 43565U 18060B   26131.91641537 -.00000058  00000+0  00000+0 0  9999","line2":"2 43565  57.1840 342.7637 0001985 278.6336  81.3865  1.70475510 48597","category":"GPS"},{"name":"EWS-G2 (GOES 15)","line1":"1 36411U 10008A   26134.18880911  .00000035  00000+0  00000+0 0  9992","line2":"2 36411   1.1859  83.4246 0004650  30.4984 249.3327  1.00273353 59290","category":"Weather"},{"name":"GLOBAL-20","line1":"1 52197U 22034C   25090.58209948  .06448525  12377-4  58860-3 0  9994","line2":"2 52197  52.9605 131.5757 0005433 326.2543  33.8155 16.38079246169593","category":"Other"},{"name":"SCD 2","line1":"1 25504U 98060A   26133.50626877  .00000317  00000+0  37715-4 0  9992","line2":"2 25504  24.9960 286.0362 0016909 116.2998 295.8405 14.45512356455302","category":"Other"},{"name":"USA 169 (MILSTAR-2 4)","line1":"1 27711U 03012A   26133.56468124 -.00000218  00000+0  00000+0 0  9995","line2":"2 27711  12.2981  30.1192 0101500   7.3925 189.1963  1.00269643 32601","category":"Military"},{"name":"SAR-LUPE 2","line1":"1 31797U 07030A   26134.27420831  .00015233  00000+0  31083-3 0  9991","line2":"2 31797  98.1012 234.6496 0011977 223.4442 136.5863 15.46239809 51690","category":"Other"},{"name":"STARLINK-35161","line1":"1 65936U 25225AC  26133.54175142  .00004926  00000+0  17829-3 0  9999","line2":"2 65936  53.1584 224.7027 0000508 349.8168  10.2822 15.30206004 33443","category":"Starlink"},{"name":"CALSPHERE 2","line1":"1 00902U 64063E   26134.07363475  .00000014  00000+0  74182-5 0  9992","line2":"2 00902  90.2366  74.9741 0017643 332.3589  39.4475 13.52897493851653","category":"Other"},{"name":"OPS 3811 (DSP 2)","line1":"1 05204U 71039A   26134.16636233 -.00000111  00000+0  00000+0 0  9999","line2":"2 05204   0.3023  35.5389 0021711 257.9710 308.2372  0.98161092205892","category":"Other"},{"name":"BEIDOU-2 G7","line1":"1 41586U 16037A   26134.26952855 -.00000339  00000+0  00000+0 0  9993","line2":"2 41586   1.6356  68.9952 0007559 358.9084  11.7164  1.00269313  6550","category":"GPS"},{"name":"FENGYUN 1C DEB","line1":"1 29773U 99025BP  26104.94661372  .00000469  00000+0  20633-3 0  9999","line2":"2 29773  99.0038 267.1553 0045963 294.5300 229.5288 14.27860293999553","category":"Weather"}]}